STARLINK-31971          
1 59934U 24106N   26068.13789082 -.00001393  00000+0 -41124-4 0  9996
2 59934  43.0017 332.4416 0001228 272.0986  87.9725 15.27576691100353
2025-313BE              
1 67482U 25313BE  26068.69721505  .00077178  00000+0  26504-2 0  9996
2 67482  97.3989 145.3568 0007208 335.3714  24.7181 15.29801687  7972
